{
  "type": "FeatureCollection",
  "name": "eBird track S372254238 (map-derived)",
  "features": [
    {
      "type": "Feature",
      "properties": {
        "checklist": "S372254238",
        "source": "https://ebird.org/checklist/S372254238",
        "location": "Mandirgarh",
        "date": "2026-07-15",
        "reported_distance_miles": 2.3,
        "precision": "Approximate; traced from the rendered checklist map",
        "timestamps": null
      },
      "geometry": {
        "type": "LineString",
        "coordinates": [
          [75.875952, 24.904651],
          [75.875180, 24.904495],
          [75.873978, 24.904106],
          [75.872777, 24.903716],
          [75.871575, 24.903249],
          [75.870288, 24.902471],
          [75.868829, 24.901614],
          [75.868056, 24.901069],
          [75.867713, 24.899980],
          [75.867799, 24.899123],
          [75.866683, 24.898423],
          [75.866769, 24.897410],
          [75.865910, 24.896632],
          [75.865138, 24.896476],
          [75.864108, 24.896009],
          [75.862735, 24.895931],
          [75.861275, 24.895931],
          [75.859816, 24.895931],
          [75.858700, 24.896320],
          [75.857756, 24.896865],
          [75.856898, 24.897021],
          [75.857756, 24.896710],
          [75.858872, 24.896087],
          [75.860074, 24.895698],
          [75.861533, 24.895698],
          [75.862906, 24.895775],
          [75.864279, 24.896165],
          [75.865567, 24.896632],
          [75.866339, 24.896476],
          [75.866511, 24.895386],
          [75.867112, 24.894218],
          [75.868142, 24.892895],
          [75.869086, 24.891883],
          [75.869515, 24.890948],
          [75.869000, 24.890326],
          [75.869343, 24.889625]
        ]
      }
    }
  ]
}
