{
  "type": "FeatureCollection",
  "name": "Mandirgarh trails and important sites",
  "features": [
    {
      "type": "Feature",
      "properties": {
        "name": "Recorded eBird GPS track",
        "kind": "recorded-track",
        "checklist": "S372254238"
      },
      "geometry": {
        "type": "LineString",
        "coordinates": [
          [
            75.87149348249812,
            24.903354551761726
          ],
          [
            75.87129493578456,
            24.903288391485
          ],
          [
            75.87117853376171,
            24.90320289012189
          ],
          [
            75.87110057790278,
            24.903093501879017
          ],
          [
            75.87095977423932,
            24.903016193636272
          ],
          [
            75.87082979031449,
            24.90297726778457
          ],
          [
            75.87064946859164,
            24.902927859259147
          ],
          [
            75.8705147944648,
            24.902848186001002
          ],
          [
            75.87045897048458,
            24.90272787833625
          ],
          [
            75.87039432849039,
            24.902594006780475
          ],
          [
            75.87033363295221,
            24.902477083497896
          ],
          [
            75.8702764027493,
            24.902402478583948
          ],
          [
            75.8701528744394,
            24.902363016261962
          ],
          [
            75.86997106657375,
            24.90230788377737
          ],
          [
            75.86978824757018,
            24.90223456969785
          ],
          [
            75.86961217249211,
            24.902162003166122
          ],
          [
            75.86946615622584,
            24.902069944256613
          ],
          [
            75.86936228022797,
            24.902005002458868
          ],
          [
            75.86925831808527,
            24.90194153947306
          ],
          [
            75.86912090710642,
            24.9019114897946
          ],
          [
            75.86900079665124,
            24.901890820632357
          ],
          [
            75.8688869236413,
            24.90192389240011
          ],
          [
            75.86874544121596,
            24.901949788701337
          ],
          [
            75.86864920995062,
            24.90197104126899
          ],
          [
            75.8684875178065,
            24.901959730612578
          ],
          [
            75.86838433409778,
            24.90188761022439
          ],
          [
            75.86831906106796,
            24.901818894016866
          ],
          [
            75.86820340673164,
            24.901601293604333
          ],
          [
            75.8681300364431,
            24.901462392991252
          ],
          [
            75.8680749605118,
            24.90135946378722
          ],
          [
            75.86800416357582,
            24.90123890043927
          ],
          [
            75.86801590622325,
            24.901121998924364
          ],
          [
            75.86802050378208,
            24.901006338513156
          ],
          [
            75.8680129314597,
            24.900913765822015
          ],
          [
            75.86793886371046,
            24.900804225580686
          ],
          [
            75.8678759368708,
            24.900691031240942
          ],
          [
            75.86782674122041,
            24.900570363986365
          ],
          [
            75.86778515637444,
            24.900452838946446
          ],
          [
            75.86777704386667,
            24.900308199705215
          ],
          [
            75.86773935723795,
            24.900182761066937
          ],
          [
            75.86780604460131,
            24.900016009342266
          ],
          [
            75.86781963172126,
            24.899866451601294
          ],
          [
            75.86776788734163,
            24.89976540227602
          ],
          [
            75.86769834936126,
            24.899646792494217
          ],
          [
            75.86765968440729,
            24.899559876223183
          ],
          [
            75.86759829076928,
            24.89945767465193
          ],
          [
            75.86747163791651,
            24.899322834294132
          ],
          [
            75.86737623343534,
            24.89919139199393
          ],
          [
            75.86726458843795,
            24.899139663366526
          ],
          [
            75.86715103644055,
            24.899072723383565
          ],
          [
            75.86703218655603,
            24.899009062300074
          ],
          [
            75.86688125090468,
            24.898946536254915
          ],
          [
            75.86678219610553,
            24.89885236178319
          ],
          [
            75.86672157736919,
            24.898697118989016
          ],
          [
            75.86669504366803,
            24.898558666275644
          ],
          [
            75.8666719772089,
            24.89843068425593
          ],
          [
            75.86668487314222,
            24.89833464237468
          ],
          [
            75.86669513139368,
            24.898242807013578
          ],
          [
            75.86672531574646,
            24.898098391186714
          ],
          [
            75.86676074845808,
            24.897935311082886
          ],
          [
            75.86679548097997,
            24.897825710403602
          ],
          [
            75.86682584280008,
            24.897686573880208
          ],
          [
            75.86685923632592,
            24.89750252313218
          ],
          [
            75.86689039152766,
            24.89730867848
          ],
          [
            75.86689925082159,
            24.89715880705493
          ],
          [
            75.86686683770095,
            24.89700733742913
          ],
          [
            75.86688617807513,
            24.896917064478362
          ],
          [
            75.86702181102278,
            24.896845092197456
          ],
          [
            75.86713111983222,
            24.896785300053587
          ],
          [
            75.86724568710527,
            24.89673781311633
          ],
          [
            75.86738245982403,
            24.89669644646007
          ],
          [
            75.86751263771764,
            24.896607444898645
          ],
          [
            75.8675334619409,
            24.896425587986666
          ],
          [
            75.86751206483261,
            24.89627990439336
          ],
          [
            75.8674949693873,
            24.896159572312424
          ],
          [
            75.86746970841558,
            24.89599990652658
          ],
          [
            75.86742835007897,
            24.895844162737493
          ],
          [
            75.86733397999895,
            24.89567744166806
          ],
          [
            75.8673005646947,
            24.89547677055965
          ],
          [
            75.86727012552765,
            24.895318508917843
          ],
          [
            75.86730114008463,
            24.895109357290274
          ],
          [
            75.867283501882,
            24.894974840911857
          ],
          [
            75.86727237358225,
            24.894822408156443
          ],
          [
            75.86724615526842,
            24.894662452328177
          ],
          [
            75.86723969305851,
            24.894493878347635
          ],
          [
            75.86726933587137,
            24.894390256691057
          ],
          [
            75.86731297906758,
            24.894238702904723
          ],
          [
            75.86741901394007,
            24.89402129086854
          ],
          [
            75.86751389932232,
            24.893826694939694
          ],
          [
            75.86760125154527,
            24.893661457854034
          ],
          [
            75.86772132129637,
            24.893543049997433
          ],
          [
            75.86787923200458,
            24.89338364453254
          ],
          [
            75.8680279365022,
            24.893236925499515
          ],
          [
            75.86812467291907,
            24.893113334599892
          ],
          [
            75.86823821904582,
            24.892980790921
          ],
          [
            75.86838367905555,
            24.892841162640515
          ],
          [
            75.86850688066902,
            24.892740329941542
          ],
          [
            75.86857245164519,
            24.892656352838056
          ],
          [
            75.86864342180743,
            24.892567064171338
          ],
          [
            75.86875102840388,
            24.892444661214267
          ],
          [
            75.86884606488937,
            24.892323545565656
          ],
          [
            75.86894768984943,
            24.892152459239792
          ],
          [
            75.86904104312322,
            24.891972737407272
          ],
          [
            75.86909879831713,
            24.89188611069169
          ],
          [
            75.86919074718843,
            24.891762199359494
          ],
          [
            75.86932355654993,
            24.89167003922337
          ],
          [
            75.86935269905003,
            24.89157889482163
          ],
          [
            75.86925002480505,
            24.891429871469406
          ],
          [
            75.86919439393165,
            24.891268576869237
          ],
          [
            75.86923891226267,
            24.891174631650724
          ],
          [
            75.86929533797792,
            24.891020022135923
          ],
          [
            75.86929899957373,
            24.890874165061792
          ],
          [
            75.86926723044694,
            24.890780197952903
          ],
          [
            75.86917133187357,
            24.89064969780567
          ],
          [
            75.86905478889217,
            24.89055575950866
          ],
          [
            75.86896640904374,
            24.89042030318036
          ],
          [
            75.86889586254823,
            24.890278376669436
          ],
          [
            75.86883659722272,
            24.890173640924544
          ],
          [
            75.86890651771486,
            24.890047574616013
          ],
          [
            75.86894365044219,
            24.88993424311609
          ],
          [
            75.869004684446,
            24.889843706177675
          ],
          [
            75.86910998174746,
            24.889783351211666
          ],
          [
            75.86919980730461,
            24.88972154595319
          ],
          [
            75.86921328870923,
            24.889624305650898
          ],
          [
            75.86930012028458,
            24.890077234711473
          ],
          [
            75.86955190357315,
            24.889660939603193
          ],
          [
            75.86953566080147,
            24.889498022123007
          ],
          [
            75.8694078184256,
            24.889532545960236
          ],
          [
            75.869298936867,
            24.88954343733126
          ],
          [
            75.86920359710845,
            24.889580248808358
          ],
          [
            75.86952523548736,
            24.889521148178748
          ],
          [
            75.86942249548127,
            24.88966779160573
          ],
          [
            75.86932309827252,
            24.88959714667576
          ],
          [
            75.86922116961159,
            24.88959336284875
          ],
          [
            75.86924840324082,
            24.890014122320235
          ],
          [
            75.86928449242174,
            24.88992719828538
          ],
          [
            75.869219108232,
            24.889847921976212
          ],
          [
            75.86919328880373,
            24.889594456979847
          ],
          [
            75.86927287100816,
            24.889483661249486
          ],
          [
            75.86916556264497,
            24.88962646527887
          ],
          [
            75.86907504637173,
            24.889704033954335
          ],
          [
            75.86900143086908,
            24.889768673983514
          ],
          [
            75.86891413872533,
            24.8899307727544
          ],
          [
            75.86888647072585,
            24.89004790346437
          ],
          [
            75.86883965486922,
            24.89014880510963
          ],
          [
            75.8688793792061,
            24.89024871793674
          ],
          [
            75.86894883725333,
            24.890349923297897
          ],
          [
            75.86900757469556,
            24.89049621259373
          ],
          [
            75.86912505408613,
            24.89060258561961
          ],
          [
            75.86921731194923,
            24.890683372102174
          ],
          [
            75.86928403657353,
            24.89082156451459
          ],
          [
            75.86929176785847,
            24.890949862753413
          ],
          [
            75.8692714375722,
            24.89108003260717
          ],
          [
            75.86921017480317,
            24.89119038249872
          ],
          [
            75.86920304744747,
            24.891351160035477
          ],
          [
            75.86927945451363,
            24.89145145392259
          ],
          [
            75.86941584881502,
            24.891504749952162
          ],
          [
            75.86951122794171,
            24.891467620967877
          ],
          [
            75.8696527358541,
            24.891365096837475
          ],
          [
            75.8697491339425,
            24.891288750302046
          ],
          [
            75.86985193118711,
            24.89122949204633
          ],
          [
            75.87000729048401,
            24.891154826406993
          ],
          [
            75.8700944651175,
            24.891109011421502
          ],
          [
            75.86994334661703,
            24.891149852267983
          ],
          [
            75.86984426041693,
            24.891188525903186
          ],
          [
            75.8697490378493,
            24.891230981840103
          ],
          [
            75.8696256971874,
            24.89136698298541
          ],
          [
            75.86948547378965,
            24.891460755259008
          ],
          [
            75.86937534072085,
            24.891516132335546
          ],
          [
            75.8693420411654,
            24.89160776594477
          ],
          [
            75.86922257343589,
            24.891637989751942
          ],
          [
            75.86911626729025,
            24.891750943062473
          ],
          [
            75.86908212067121,
            24.891849557821374
          ],
          [
            75.86900611884256,
            24.891967352529754
          ],
          [
            75.86893227952227,
            24.892038596709558
          ],
          [
            75.86890033233597,
            24.892127807163927
          ],
          [
            75.86885077957548,
            24.89221776305861
          ],
          [
            75.86876996875911,
            24.892367611627847
          ],
          [
            75.86864048438534,
            24.892523565620632
          ],
          [
            75.86856523989684,
            24.89261936417316
          ],
          [
            75.86844905332276,
            24.892769668742144
          ],
          [
            75.8683543182433,
            24.892830349545754
          ],
          [
            75.86827209095316,
            24.892908826764288
          ],
          [
            75.8681836656433,
            24.89300259426633
          ],
          [
            75.86811187365244,
            24.89308746064218
          ],
          [
            75.86804748445518,
            24.893167959163538
          ],
          [
            75.86797306899474,
            24.893257968896112
          ],
          [
            75.86789629039491,
            24.893329979197485
          ],
          [
            75.86777283296934,
            24.893469524421064
          ],
          [
            75.86769503978013,
            24.893533607956737
          ],
          [
            75.86755671787306,
            24.893668611076343
          ],
          [
            75.86749420423652,
            24.893788728176425
          ],
          [
            75.86744827980402,
            24.893908007252733
          ],
          [
            75.86736397582669,
            24.894051071170203
          ],
          [
            75.86730098668322,
            24.8941997636324
          ],
          [
            75.86727930437009,
            24.89432052505309
          ],
          [
            75.86724055905009,
            24.894445403594172
          ],
          [
            75.86721630224149,
            24.894543912193708
          ],
          [
            75.86721615601016,
            24.894673838050355
          ],
          [
            75.86723617560672,
            24.894786265277922
          ],
          [
            75.86726060258748,
            24.8948793553032
          ],
          [
            75.86728536548027,
            24.894990255309395
          ],
          [
            75.8672834015722,
            24.895101404480876
          ],
          [
            75.86727835009432,
            24.89521318453423
          ],
          [
            75.86724500864992,
            24.895323937499487
          ],
          [
            75.86726640280894,
            24.895457773802928
          ],
          [
            75.86730315844615,
            24.8955510435293
          ],
          [
            75.86731649424489,
            24.895666677636285
          ],
          [
            75.86736058790804,
            24.895771816222783
          ],
          [
            75.86744345564728,
            24.89589715267804
          ],
          [
            75.86747579347151,
            24.895993353735566
          ],
          [
            75.86748668753467,
            24.89614257619132
          ],
          [
            75.86749491147975,
            24.89628040539909
          ],
          [
            75.86752593027208,
            24.89643387087175
          ],
          [
            75.86751684981196,
            24.896573909758658
          ],
          [
            75.86743338902086,
            24.896643039140894
          ],
          [
            75.86717759354082,
            24.896702113436977
          ],
          [
            75.86708249405332,
            24.89676932635849
          ],
          [
            75.86692578695224,
            24.896859964349368
          ],
          [
            75.86680300257541,
            24.896913182194993
          ],
          [
            75.8666418770667,
            24.896848331852922
          ],
          [
            75.86646704124999,
            24.89681058136169
          ],
          [
            75.86632644079087,
            24.89679579352061
          ],
          [
            75.86621877608957,
            24.896828987493905
          ],
          [
            75.8660965727253,
            24.896876706890808
          ],
          [
            75.86598072465986,
            24.896888560209387
          ],
          [
            75.86581889644314,
            24.896850815209966
          ],
          [
            75.86568000018367,
            24.896711546300292
          ],
          [
            75.86555124929602,
            24.896670876095502
          ],
          [
            75.86544089655435,
            24.89658558681269
          ],
          [
            75.86531727590825,
            24.896527799682655
          ],
          [
            75.86517479394024,
            24.896473419405876
          ],
          [
            75.8650651139761,
            24.89643508380578
          ],
          [
            75.86495471108161,
            24.89637851453373
          ],
          [
            75.86486478569601,
            24.896289662796768
          ],
          [
            75.8647539841035,
            24.896212071821957
          ],
          [
            75.8646501206469,
            24.896163616055585
          ],
          [
            75.86449759569747,
            24.896052816400452
          ],
          [
            75.86438032724293,
            24.895979083123397
          ],
          [
            75.8642902631643,
            24.89593714006488
          ],
          [
            75.86417903838051,
            24.895908710785868
          ],
          [
            75.86403682713325,
            24.895893809135934
          ],
          [
            75.86390303231671,
            24.895886930816427
          ],
          [
            75.86377468821205,
            24.89587600393816
          ],
          [
            75.86367083304815,
            24.89586770936966
          ],
          [
            75.86352283230781,
            24.895848282732608
          ],
          [
            75.86334542787716,
            24.895831799897287
          ],
          [
            75.86315176836366,
            24.895844458607307
          ],
          [
            75.8630012413272,
            24.895871133145874
          ],
          [
            75.86289951612032,
            24.895896885923367
          ],
          [
            75.86276436020272,
            24.8959311772323
          ],
          [
            75.86260764074432,
            24.89595808031304
          ],
          [
            75.86244397097929,
            24.895964903481527
          ],
          [
            75.86229747173527,
            24.895950193750682
          ],
          [
            75.86215785836609,
            24.89593364881598
          ],
          [
            75.8620548231294,
            24.895918765151187
          ],
          [
            75.86188181182516,
            24.895898089421888
          ],
          [
            75.86175157334361,
            24.895884016586404
          ],
          [
            75.86160821502484,
            24.895879379950788
          ],
          [
            75.86143076309209,
            24.895879884799967
          ],
          [
            75.86124859256022,
            24.895860925905765
          ],
          [
            75.86108310432535,
            24.895835242671016
          ],
          [
            75.86093363819204,
            24.895812371310672
          ],
          [
            75.8607996488724,
            24.89579377761526
          ],
          [
            75.86058265003854,
            24.895799398667652
          ],
          [
            75.86044756880956,
            24.89580626465514
          ],
          [
            75.86028798214822,
            24.89581831563584
          ],
          [
            75.8601632263807,
            24.895811574481144
          ],
          [
            75.86004667948832,
            24.895801697890075
          ],
          [
            75.85990187245842,
            24.895787823598923
          ],
          [
            75.85975688819717,
            24.89578299220765
          ],
          [
            75.85961977678619,
            24.89576701185162
          ],
          [
            75.85945484165728,
            24.8957498348938
          ],
          [
            75.85930086151494,
            24.895743484728655
          ],
          [
            75.85919160887842,
            24.895758054959593
          ],
          [
            75.8590680875221,
            24.89579576133458
          ],
          [
            75.85896553065187,
            24.895829955512273
          ],
          [
            75.85884722271008,
            24.895870235705107
          ],
          [
            75.85872060311434,
            24.895916514908716
          ],
          [
            75.85861633943787,
            24.895955778442087
          ],
          [
            75.85845767369342,
            24.895977876143665
          ],
          [
            75.85827486673529,
            24.89602959733338
          ],
          [
            75.85811048372805,
            24.896077093825568
          ],
          [
            75.85795596881552,
            24.896105477679853
          ],
          [
            75.8578167507197,
            24.896158751325363
          ],
          [
            75.85772417927105,
            24.89621997695649
          ],
          [
            75.8576300317372,
            24.896304827431752
          ],
          [
            75.85753067491167,
            24.896400628066328
          ],
          [
            75.85741629757213,
            24.896505197656925
          ],
          [
            75.85731468652659,
            24.896607993859305
          ],
          [
            75.85722921801204,
            24.896688665679548
          ],
          [
            75.85713856170204,
            24.896771435808155
          ],
          [
            75.85703615845628,
            24.89681759523869
          ],
          [
            75.85719151833335,
            24.89675273706782
          ],
          [
            75.85731114685838,
            24.896636251059114
          ],
          [
            75.85742839232823,
            24.89652161635663
          ],
          [
            75.85754493808523,
            24.896416427816618
          ],
          [
            75.85763528516918,
            24.896332036757446
          ],
          [
            75.85772624747172,
            24.89624961115053
          ],
          [
            75.85786379641264,
            24.896153712013184
          ],
          [
            75.85801162029527,
            24.896097557216628
          ],
          [
            75.85813203378433,
            24.89607397842512
          ],
          [
            75.85825269872358,
            24.896043186149203
          ],
          [
            75.8584108905385,
            24.895990914408777
          ],
          [
            75.8585124110823,
            24.895969357299805
          ],
          [
            75.85862910919553,
            24.895954155738742
          ],
          [
            75.85874784813178,
            24.895914006101105
          ],
          [
            75.8588728962893,
            24.895871314197766
          ],
          [
            75.85903795349117,
            24.89582903144812
          ],
          [
            75.85917481428378,
            24.89577446269786
          ],
          [
            75.85929976262744,
            24.895747895934907
          ],
          [
            75.85944324980053,
            24.895743732605986
          ],
          [
            75.85962161520213,
            24.895769233284895
          ],
          [
            75.8598045579862,
            24.89578704258962
          ],
          [
            75.85993561766192,
            24.89579946509191
          ],
          [
            75.8600439697694,
            24.89581557343882
          ],
          [
            75.86020565986715,
            24.895836116451136
          ],
          [
            75.86037171217198,
            24.895854907749204
          ],
          [
            75.86048929877326,
            24.895842351023756
          ],
          [
            75.86061205165323,
            24.895828662276205
          ],
          [
            75.86071553425198,
            24.895817898164943
          ],
          [
            75.86087193816562,
            24.895834374428446
          ],
          [
            75.8610677714333,
            24.89582981981229
          ],
          [
            75.86117943690348,
            24.89584927702257
          ],
          [
            75.86130707179194,
            24.895882458314336
          ],
          [
            75.86149155848508,
            24.89589080303019
          ],
          [
            75.86160133532438,
            24.895899428209127
          ],
          [
            75.86172067115687,
            24.895903831600595
          ],
          [
            75.86187266094154,
            24.895909748453317
          ],
          [
            75.86209751689707,
            24.895945019739578
          ],
          [
            75.86231030091233,
            24.89596314701934
          ],
          [
            75.8625166355481,
            24.895985586370674
          ],
          [
            75.86272485592032,
            24.895971131913818
          ],
          [
            75.86284032502074,
            24.89595766197042
          ],
          [
            75.86300383897873,
            24.895893426545893
          ],
          [
            75.86316357254265,
            24.895851773562324
          ],
          [
            75.86327797516782,
            24.895873485593054
          ],
          [
            75.86339348676084,
            24.89585669855139
          ],
          [
            75.86356808408412,
            24.895870813867585
          ],
          [
            75.86370104754585,
            24.895903302449227
          ],
          [
            75.86381001017978,
            24.895920261999144
          ],
          [
            75.86397034386042,
            24.89591985627426
          ],
          [
            75.86411842664957,
            24.895920941080988
          ],
          [
            75.86434003550602,
            24.895964575362857
          ],
          [
            75.86444473475925,
            24.89604685064472
          ],
          [
            75.86454976442613,
            24.89611781108972
          ],
          [
            75.86462544530211,
            24.89619105259895
          ],
          [
            75.86473799559515,
            24.89621578613919
          ],
          [
            75.86485928628173,
            24.896313835858024
          ],
          [
            75.86500775651349,
            24.896457031559763
          ],
          [
            75.86523182770564,
            24.896560703548218
          ],
          [
            75.86544208726768,
            24.896652283433426
          ],
          [
            75.86560835849676,
            24.89673165202507
          ],
          [
            75.86571774280104,
            24.896779589751592
          ],
          [
            75.86579947290676,
            24.89686313842482
          ],
          [
            75.86588871014885,
            24.896916664352375
          ],
          [
            75.86599765370056,
            24.89691892490641
          ],
          [
            75.86622210077739,
            24.896872601803164
          ],
          [
            75.866463003482,
            24.89682679591687
          ],
          [
            75.86664324810296,
            24.896855550648972
          ],
          [
            75.86679893376314,
            24.896945085874318
          ],
          [
            75.8668693666339,
            24.897087212449396
          ],
          [
            75.86685074067337,
            24.897210777934593
          ],
          [
            75.86682684335524,
            24.897381734060613
          ],
          [
            75.86676354179522,
            24.89762056947511
          ],
          [
            75.86674265356498,
            24.897814131126744
          ],
          [
            75.86673169571742,
            24.89794812262986
          ],
          [
            75.86668169809445,
            24.89813611816295
          ],
          [
            75.86664845440117,
            24.89830725109107
          ],
          [
            75.86665290326167,
            24.898494474021057
          ],
          [
            75.86669844055096,
            24.898685184059552
          ],
          [
            75.8667424626821,
            24.898798640863202
          ],
          [
            75.8668250374197,
            24.898945473946277
          ],
          [
            75.8670027083922,
            24.899021615516443
          ],
          [
            75.8671512633936,
            24.899081444132204
          ],
          [
            75.86730335629002,
            24.899178012618343
          ],
          [
            75.86741979465077,
            24.899272448561714
          ],
          [
            75.86753503818426,
            24.89942137089424
          ],
          [
            75.86763502167487,
            24.89954639807078
          ],
          [
            75.86769201341087,
            24.899657517788782
          ],
          [
            75.86774550710201,
            24.89976896543722
          ],
          [
            75.86780272401265,
            24.89986456399633
          ],
          [
            75.86777172884773,
            24.899991606058315
          ],
          [
            75.86770861766612,
            24.90012820842912
          ],
          [
            75.86776478777821,
            24.900294944112133
          ],
          [
            75.86777039673561,
            24.90045082812738
          ],
          [
            75.86785664844611,
            24.900660451630472
          ],
          [
            75.86791593607774,
            24.90081742519929
          ],
          [
            75.86798869118246,
            24.900948677135744
          ],
          [
            75.86799861569745,
            24.901069178260023
          ],
          [
            75.86799036308423,
            24.90118043914517
          ],
          [
            75.86804714946665,
            24.901325830652297
          ],
          [
            75.86810801681267,
            24.901451446997992
          ],
          [
            75.86817474633035,
            24.90159938875898
          ],
          [
            75.86826963777204,
            24.90176761870524
          ],
          [
            75.86834531570206,
            24.901871067020927
          ],
          [
            75.86848496221143,
            24.901966684216216
          ],
          [
            75.86861818772167,
            24.902032055559733
          ],
          [
            75.86872498338793,
            24.901980068173557
          ],
          [
            75.86884057416025,
            24.901967742036845
          ],
          [
            75.86893654866834,
            24.90192886053069
          ],
          [
            75.8690515035742,
            24.901906947749676
          ],
          [
            75.86916137664743,
            24.901922020918555
          ],
          [
            75.86926425875954,
            24.90193612592531
          ],
          [
            75.86935225771083,
            24.901992623292717
          ],
          [
            75.86950338796457,
            24.90209121738577
          ],
          [
            75.8696092475926,
            24.902168869214186
          ],
          [
            75.86969785048099,
            24.90222841394239
          ],
          [
            75.86984819378007,
            24.902276507037758
          ],
          [
            75.86999366851795,
            24.902329358301902
          ],
          [
            75.87012106915586,
            24.902372617084477
          ],
          [
            75.8702345593486,
            24.90238649388284
          ],
          [
            75.87037005456219,
            24.902508028260463
          ],
          [
            75.87045645888279,
            24.902716742738466
          ],
          [
            75.87060858619716,
            24.902944158594494
          ],
          [
            75.87089482053702,
            24.903022809912226
          ],
          [
            75.87112188336255,
            24.90309926438557
          ],
          [
            75.87124514622882,
            24.90325261603245
          ],
          [
            75.87144322012607,
            24.90333137297656
          ],
          [
            75.87167149446923,
            24.903376888243734
          ],
          [
            75.8718655354388,
            24.903440234858373
          ],
          [
            75.8720117123486,
            24.903499434796224
          ],
          [
            75.87215524561933,
            24.903553306018857
          ],
          [
            75.87231090848418,
            24.90363257854413
          ],
          [
            75.8724673141635,
            24.903707211674426
          ],
          [
            75.87261988489787,
            24.903760567320507
          ],
          [
            75.87277155762641,
            24.903832611288138
          ],
          [
            75.8729666834643,
            24.90390427568969
          ],
          [
            75.87311459363578,
            24.903987758843737
          ],
          [
            75.8732813646613,
            24.904060631620858
          ],
          [
            75.87345992660731,
            24.904136283894182
          ],
          [
            75.8736666132813,
            24.90421687776585
          ],
          [
            75.87392843848913,
            24.90427543038842
          ],
          [
            75.8741888837895,
            24.904347295961276
          ],
          [
            75.8744305052737,
            24.904362467054725
          ],
          [
            75.87464547493815,
            24.904391500302648
          ],
          [
            75.87483862949763,
            24.904430671795172
          ],
          [
            75.87506213304731,
            24.904474706636364
          ],
          [
            75.87531530361407,
            24.904536757820583
          ],
          [
            75.87555183218831,
            24.90459883506826
          ],
          [
            75.87579139670073,
            24.904656758172177
          ],
          [
            75.87607214059784,
            24.90471387201354
          ]
        ]
      }
    },
    {
      "type": "Feature",
      "properties": {
        "name": "Accessible trail extension behind the village",
        "kind": "recorded-track-extension",
        "status": "Currently accessible on foot"
      },
      "geometry": {
        "type": "LineString",
        "coordinates": [
          [75.8672656538698, 24.890088050926984],
          [75.86448570485268, 24.890251216952176],
          [75.8628, 24.89015],
          [75.8608, 24.89045],
          [75.8587, 24.8909],
          [75.8569, 24.89165],
          [75.8558, 24.89275],
          [75.85545, 24.8939],
          [75.8558, 24.89505],
          [75.8567, 24.89585],
          [75.858195, 24.896378],
          [75.8601, 24.89605],
          [75.862413, 24.89587]
        ]
      }
    },
    {
      "type": "Feature",
      "properties": {
        "name": "Accessible-area boundary",
        "kind": "accessible-boundary",
        "status": "Approximate boundary of places currently accessible on foot"
      },
      "geometry": {
        "type": "LineString",
        "coordinates": [
          [75.8562, 24.8972],
          [75.86, 24.8972],
          [75.8648, 24.8978],
          [75.8677, 24.9019],
          [75.8712, 24.9039],
          [75.8764, 24.9051],
          [75.877, 24.9045],
          [75.8738, 24.9033],
          [75.8708, 24.9015],
          [75.8692, 24.8985],
          [75.8695, 24.894],
          [75.8701, 24.89],
          [75.8693, 24.8891],
          [75.8665, 24.889],
          [75.8625, 24.8893],
          [75.859, 24.89],
          [75.8564, 24.891],
          [75.8552, 24.8928],
          [75.855, 24.8951],
          [75.8562, 24.8972]
        ]
      }
    },
    {
      "type": "Feature",
      "properties": {
        "id": "h1",
        "name": "Potential Homestay 1",
        "category": "stay",
        "detail": "Potential community homestay location."
      },
      "geometry": {
        "type": "Point",
        "coordinates": [
          75.862413,
          24.89587
        ]
      }
    },
    {
      "type": "Feature",
      "properties": {
        "id": "h2",
        "name": "Potential Homestay 2",
        "category": "stay",
        "detail": "Potential community homestay location."
      },
      "geometry": {
        "type": "Point",
        "coordinates": [
          75.858195,
          24.896378
        ]
      }
    },
    {
      "type": "Feature",
      "properties": {
        "id": "well",
        "name": "Andhe Ki Bawdi heritage stepwell",
        "category": "heritage",
        "detail": "Old heritage water well / stepwell."
      },
      "geometry": {
        "type": "Point",
        "coordinates": [
          75.869048,
          24.9019289
        ]
      }
    },
    {
      "type": "Feature",
      "properties": {
        "id": "muslim",
        "name": "Muslim religious site",
        "category": "heritage",
        "detail": "Local religious site."
      },
      "geometry": {
        "type": "Point",
        "coordinates": [
          75.86711413191117,
          24.899246762245365
        ]
      }
    },
    {
      "type": "Feature",
      "properties": {
        "id": "hindu-ruin",
        "name": "Heritage Hindu temple ruin",
        "category": "heritage",
        "detail": "Heritage Hindu religious temple ruin."
      },
      "geometry": {
        "type": "Point",
        "coordinates": [
          75.86761386507494,
          24.898155433943582
        ]
      }
    },
    {
      "type": "Feature",
      "properties": {
        "id": "goraji",
        "name": "Gora Ji Temple",
        "category": "heritage",
        "detail": "Temple landmark close to the trail."
      },
      "geometry": {
        "type": "Point",
        "coordinates": [
          75.8665340186784,
          24.897259072380677
        ]
      }
    },
    {
      "type": "Feature",
      "properties": {
        "id": "shiva",
        "name": "Shiva Temple",
        "category": "heritage",
        "detail": "Temple landmark near the waterbody."
      },
      "geometry": {
        "type": "Point",
        "coordinates": [
          75.86768634728669,
          24.895032259069193
        ]
      }
    },
    {
      "type": "Feature",
      "properties": {
        "id": "ruin1",
        "name": "Temple ruin 1",
        "category": "heritage",
        "detail": "Temple ruin on the southern trail."
      },
      "geometry": {
        "type": "Point",
        "coordinates": [
          75.8685168476055,
          24.893461160957695
        ]
      }
    },
    {
      "type": "Feature",
      "properties": {
        "id": "ruin2",
        "name": "Temple ruin 2",
        "category": "heritage",
        "detail": "Temple ruin near the north-west approach."
      },
      "geometry": {
        "type": "Point",
        "coordinates": [
          75.8646629592969,
          24.897884631884803
        ]
      }
    },
    {
      "type": "Feature",
      "properties": {
        "id": "chowki2",
        "name": "Forest Chowki 2 and public toilet",
        "category": "community",
        "detail": "Forest post and public-toilet facility."
      },
      "geometry": {
        "type": "Point",
        "coordinates": [
          75.8672656538698,
          24.890088050926984
        ]
      }
    },
    {
      "type": "Feature",
      "properties": {
        "id": "village",
        "name": "Village centre and grocery shop",
        "category": "community",
        "detail": "Village centre, local grocery and services."
      },
      "geometry": {
        "type": "Point",
        "coordinates": [
          75.85895874260609,
          24.8931288593678
        ]
      }
    },
    {
      "type": "Feature",
      "properties": {
        "id": "nature1",
        "name": "Forest vegetation and nature trail site",
        "category": "nature",
        "detail": "Forest vegetation and nature-trail experience."
      },
      "geometry": {
        "type": "Point",
        "coordinates": [
          75.86972968217054,
          24.890796575281684
        ]
      }
    },
    {
      "type": "Feature",
      "properties": {
        "id": "water",
        "name": "Waterbody centre",
        "category": "nature",
        "detail": "Reference point for the central waterbody."
      },
      "geometry": {
        "type": "Point",
        "coordinates": [
          75.86553198860199,
          24.894250273785232
        ]
      }
    },
    {
      "type": "Feature",
      "properties": {
        "id": "farmland",
        "name": "Tribal farmland centre",
        "category": "nature",
        "detail": "Tribal farmland landscape and interpretation point."
      },
      "geometry": {
        "type": "Point",
        "coordinates": [
          75.86133738238297,
          24.89456192598277
        ]
      }
    },
    {
      "type": "Feature",
      "properties": {
        "id": "scrub",
        "name": "Open-country shrubland and scrub trail",
        "category": "nature",
        "detail": "Open-country shrubland and scrub trail experience."
      },
      "geometry": {
        "type": "Point",
        "coordinates": [
          75.86448570485268,
          24.890251216952176
        ]
      }
    },
    {
      "type": "Feature",
      "properties": {
        "id": "hide1",
        "name": "Wader-watching point and potential bird hide",
        "category": "nature",
        "detail": "Potential temporary bird hide and waterbird watching point."
      },
      "geometry": {
        "type": "Point",
        "coordinates": [
          75.86724782029496,
          24.894791913316716
        ]
      }
    },
    {
      "type": "Feature",
      "properties": {
        "id": "watch2",
        "name": "Wader-watching point 2",
        "category": "nature",
        "detail": "Secondary waterbird watching point."
      },
      "geometry": {
        "type": "Point",
        "coordinates": [
          75.86458326677572,
          24.891911626283434
        ]
      }
    },
    {
      "type": "Feature",
      "properties": {
        "id": "play",
        "name": "Playground and shaded relaxation point",
        "category": "community",
        "detail": "Playground and shaded resting point."
      },
      "geometry": {
        "type": "Point",
        "coordinates": [
          75.85790023815679,
          24.895744400193966
        ]
      }
    },
    {
      "type": "Feature",
      "properties": {
        "id": "relax2",
        "name": "Relaxation point 2",
        "category": "community",
        "detail": "Convenient trail rest point."
      },
      "geometry": {
        "type": "Point",
        "coordinates": [
          75.86469598544622,
          24.89614193369255
        ]
      }
    },
    {
      "type": "Feature",
      "properties": {
        "id": "relief",
        "name": "Trail relief and relaxation point",
        "category": "community",
        "detail": "Southern trail relief and relaxation point."
      },
      "geometry": {
        "type": "Point",
        "coordinates": [
          75.86855793493764,
          24.890433305215925
        ]
      }
    },
    {
      "type": "Feature",
      "properties": {
        "id": "chowki1",
        "name": "Forest Chowki 1 / flora-fauna trailhead",
        "category": "nature",
        "detail": "Top-right forest post and trailhead for flora and fauna observation."
      },
      "geometry": {
        "type": "Point",
        "coordinates": [
          75.87607214059784,
          24.90471387201354
        ]
      }
    }
  ]
}
